1 27424U 02022A   11019.48636797  .00000127  00000-0  38319-4 0  8501
2 27424 098.2118 322.4309 0001472 095.1919 264.9450 14.57104624463413